{"type": "FeatureCollection", "features": [ {"type": "Feature", "properties": {"norad_id": 45807, "name": "BEIDOU-3 G3 (C61)", "group": "gnss", "lat": -1.5457590364026976, "lon": 16.539837029862554, "alt_km": 35759.66592093081, "timestamp": "2025-12-23T11:34:48.410867+00:00", "meta": {"OBJECT_NAME": "BEIDOU-3 G3 (C61)", "OBJECT_ID": "2020-040A", "EPOCH": "2025-12-22T22:15:02.225376", "MEAN_MOTION": 1.00269046, "ECCENTRICITY": 0.00065459, "INCLINATION": 2.0143, "RA_OF_ASC_NODE": 66.6672, "ARG_OF_PERICENTER": 309.2145, "MEAN_ANOMALY": 160.1609, "EPHEMERIS_TYPE": 0, "CLASSIFICATION_TYPE": "U", "NORAD_CAT_ID": 45807, "ELEMENT_SET_NO": 999, "REV_AT_EPOCH": 2030, "BSTAR": 0, "MEAN_MOTION_DOT": -3.33e-06, "MEAN_MOTION_DDOT": 0}, "tle": {"line1": "1 45807U 20040A   25356.92710909 -.00000333  00000+0  00000+0 0  9996", "line2": "2 45807   2.0143  66.6672 0006545 309.2145 160.1609  1.00269046 20309"}}, "geometry": {"type": "Point", "coordinates": [16.539837029862554, -1.5457590364026976]}}, {"type": "Feature", "properties": {"norad_id": 45854, "name": "GPS BIII-3  (PRN 23)", "group": "gnss", "lat": -0.7346425111352839, "lon": -143.72957988329486, "alt_km": 20034.293848518373, "timestamp": "2025-12-23T11:34:48.410878+00:00", "meta": {"OBJECT_NAME": "GPS BIII-3  (PRN 23)", "OBJECT_ID": "2020-041A", "EPOCH": "2025-12-22T05:37:47.217792", "MEAN_MOTION": 2.00561833, "ECCENTRICITY": 0.00606538, "INCLINATION": 56.5532, "RA_OF_ASC_NODE": 35.8163, "ARG_OF_PERICENTER": 203.667, "MEAN_ANOMALY": 156.4419, "EPHEMERIS_TYPE": 0, "CLASSIFICATION_TYPE": "U", "NORAD_CAT_ID": 45854, "ELEMENT_SET_NO": 999, "REV_AT_EPOCH": 4049, "BSTAR": 0, "MEAN_MOTION_DOT": -5.1e-07, "MEAN_MOTION_DDOT": 0}, "tle": {"line1": "1 45854U 20041A   25356.23457428 -.00000051  00000+0  00000+0 0  9994", "line2": "2 45854  56.5532  35.8163 0060653 203.6670 156.4419  2.00561833 40499"}}, "geometry": {"type": "Point", "coordinates": [-143.72957988329486, -0.7346425111352839]}}, {"type": "Feature", "properties": {"norad_id": 46114, "name": "GALAXY 30 (WAAS/PRN 135)", "group": "gnss", "lat": 0.03323300733349909, "lon": 140.948963021997, "alt_km": 35791.55245355414, "timestamp": "2025-12-23T11:34:48.410888+00:00", "meta": {"OBJECT_NAME": "GALAXY 30 (WAAS/PRN 135)", "OBJECT_ID": "2020-056C", "EPOCH": "2025-12-23T03:38:39.356160", "MEAN_MOTION": 1.00270214, "ECCENTRICITY": 0.0002016, "INCLINATION": 0.0188, "RA_OF_ASC_NODE": 12.6466, "ARG_OF_PERICENTER": 254.5213, "MEAN_ANOMALY": 114.4446, "EPHEMERIS_TYPE": 0, "CLASSIFICATION_TYPE": "U", "NORAD_CAT_ID": 46114, "ELEMENT_SET_NO": 999, "REV_AT_EPOCH": 1952, "BSTAR": 0, "MEAN_MOTION_DOT": 5.8e-07, "MEAN_MOTION_DDOT": 0}, "tle": {"line1": "1 46114U 20056C   25357.15184440  .00000058  00000+0  00000+0 0  9999", "line2": "2 46114   0.0188  12.6466 0002016 254.5213 114.4446  1.00270214 19529"}}, "geometry": {"type": "Point", "coordinates": [140.948963021997, 0.03323300733349909]}}, {"type": "Feature", "properties": {"norad_id": 46805, "name": "COSMOS 2547 (705K)", "group": "gnss", "lat": 28.98188007821182, "lon": -146.38784848806145, "alt_km": 19141.80413987695, "timestamp": "2025-12-23T11:34:48.410898+00:00", "meta": {"OBJECT_NAME": "COSMOS 2547 (705K)", "OBJECT_ID": "2020-075A", "EPOCH": "2025-12-22T23:18:06.854688", "MEAN_MOTION": 2.13100221, "ECCENTRICITY": 0.0006107, "INCLINATION": 64.5968, "RA_OF_ASC_NODE": 198.3547, "ARG_OF_PERICENTER": 227.5279, "MEAN_ANOMALY": 132.4843, "EPHEMERIS_TYPE": 0, "CLASSIFICATION_TYPE": "U", "NORAD_CAT_ID": 46805, "ELEMENT_SET_NO": 999, "REV_AT_EPOCH": 4015, "BSTAR": 0, "MEAN_MOTION_DOT": 9.5e-07, "MEAN_MOTION_DDOT": 0}, "tle": {"line1": "1 46805U 20075A   25356.97091267  .00000095  00000+0  00000+0 0  9991", "line2": "2 46805  64.5968 198.3547 0006107 227.5279 132.4843  2.13100221 40155"}}, "geometry": {"type": "Point", "coordinates": [-146.38784848806145, 28.98188007821182]}}, {"type": "Feature", "properties": {"norad_id": 46826, "name": "GPS BIII-4  (PRN 14)", "group": "gnss", "lat": 22.45974343863025, "lon": 20.438331648316346, "alt_km": 20072.036335717712, "timestamp": "2025-12-23T11:34:48.410907+00:00", "meta": {"OBJECT_NAME": "GPS BIII-4  (PRN 14)", "OBJECT_ID": "2020-078A", "EPOCH": "2025-12-16T01:06:13.902336", "MEAN_MOTION": 2.00566891, "ECCENTRICITY": 0.0064755, "INCLINATION": 54.0145, "RA_OF_ASC_NODE": 218.2068, "ARG_OF_PERICENTER": 203.3828, "MEAN_ANOMALY": 339.3936, "EPHEMERIS_TYPE": 0, "CLASSIFICATION_TYPE": "U", "NORAD_CAT_ID": 46826, "ELEMENT_SET_NO": 999, "REV_AT_EPOCH": 3783, "BSTAR": 0, "MEAN_MOTION_DOT": 6.7e-07, "MEAN_MOTION_DDOT": 0}, "tle": {"line1": "1 46826U 20078A   25350.04599424  .00000067  00000+0  00000+0 0  9996", "line2": "2 46826  54.0145 218.2068 0064755 203.3828 339.3936  2.00566891 37831"}}, "geometry": {"type": "Point", "coordinates": [20.438331648316346, 22.45974343863025]}}, {"type": "Feature", "properties": {"norad_id": 48859, "name": "GPS BIII-5  (PRN 11)", "group": "gnss", "lat": -18.353410631958, "lon": -33.801001832885596, "alt_km": 20200.943575531066, "timestamp": "2025-12-23T11:34:48.410917+00:00", "meta": {"OBJECT_NAME": "GPS BIII-5  (PRN 11)", "OBJECT_ID": "2021-054A", "EPOCH": "2025-12-08T04:14:32.423424", "MEAN_MOTION": 2.00553627, "ECCENTRICITY": 0.0024678, "INCLINATION": 55.2581, "RA_OF_ASC_NODE": 340.1367, "ARG_OF_PERICENTER": 233.3993, "MEAN_ANOMALY": 212.8594, "EPHEMERIS_TYPE": 0, "CLASSIFICATION_TYPE": "U", "NORAD_CAT_ID": 48859, "ELEMENT_SET_NO": 999, "REV_AT_EPOCH": 3292, "BSTAR": 0, "MEAN_MOTION_DOT": -8.6e-07, "MEAN_MOTION_DDOT": 0}, "tle": {"line1": "1 48859U 21054A   25342.17676416 -.00000086  00000+0  00000+0 0  9993", "line2": "2 48859  55.2581 340.1367 0024678 233.3993 212.8594  2.00553627 32922"}}, "geometry": {"type": "Point", "coordinates": [-33.801001832885596, -18.353410631958]}}, {"type": "Feature", "properties": {"norad_id": 49336, "name": "QZS-1R (QZSS/PRN 196)", "group": "gnss", "lat": -20.49085317888985, "lon": 52.63996741224564, "alt_km": 33740.63882126795, "timestamp": "2025-12-23T11:34:48.410928+00:00", "meta": {"OBJECT_NAME": "QZS-1R (QZSS/PRN 196)", "OBJECT_ID": "2021-096A", "EPOCH": "2025-12-22T13:50:43.015200", "MEAN_MOTION": 1.00254287, "ECCENTRICITY": 0.07571253, "INCLINATION": 37.0967, "RA_OF_ASC_NODE": 82.2147, "ARG_OF_PERICENTER": 271.501, "MEAN_ANOMALY": 79.4971, "EPHEMERIS_TYPE": 0, "CLASSIFICATION_TYPE": "U", "NORAD_CAT_ID": 49336, "ELEMENT_SET_NO": 999, "REV_AT_EPOCH": 1523, "BSTAR": 0, "MEAN_MOTION_DOT": -2.47e-06, "MEAN_MOTION_DDOT": 0}, "tle": {"line1": "1 49336U 21096A   25356.57688675 -.00000247  00000+0  00000+0 0  9998", "line2": "2 49336  37.0967  82.2147 0757125 271.5010  79.4971  1.00254287 15233"}}, "geometry": {"type": "Point", "coordinates": [52.63996741224564, -20.49085317888985]}}, {"type": "Feature", "properties": {"norad_id": 49809, "name": "GSAT0223 (GALILEO 27)", "group": "gnss", "lat": -53.846953668364975, "lon": -75.4768482864858, "alt_km": 23216.53656084282, "timestamp": "2025-12-23T11:34:48.410938+00:00", "meta": {"OBJECT_NAME": "GSAT0223 (GALILEO 27)", "OBJECT_ID": "2021-116A", "EPOCH": "2025-12-22T17:26:14.878176", "MEAN_MOTION": 1.70475871, "ECCENTRICITY": 0.000441, "INCLINATION": 57.2174, "RA_OF_ASC_NODE": 346.4438, "ARG_OF_PERICENTER": 255.815, "MEAN_ANOMALY": 286.3499, "EPHEMERIS_TYPE": 0, "CLASSIFICATION_TYPE": "U", "NORAD_CAT_ID": 49809, "ELEMENT_SET_NO": 999, "REV_AT_EPOCH": 2517, "BSTAR": 0, "MEAN_MOTION_DOT": -6.4e-07, "MEAN_MOTION_DDOT": 0}, "tle": {"line1": "1 49809U 21116A   25356.72656109 -.00000064  00000+0  00000+0 0  9997", "line2": "2 49809  57.2174 346.4438 0004410 255.8150 286.3499  1.70475871 25171"}}, "geometry": {"type": "Point", "coordinates": [-75.4768482864858, -53.846953668364975]}}, {"type": "Feature", "properties": {"norad_id": 49810, "name": "GSAT0224 (GALILEO 28)", "group": "gnss", "lat": 31.726337441526788, "lon": 9.888997794330036, "alt_km": 23226.38032406714, "timestamp": "2025-12-23T11:34:48.410950+00:00", "meta": {"OBJECT_NAME": "GSAT0224 (GALILEO 28)", "OBJECT_ID": "2021-116B", "EPOCH": "2025-12-23T03:00:59.527872", "MEAN_MOTION": 1.70475912, "ECCENTRICITY": 0.0003752, "INCLINATION": 57.2181, "RA_OF_ASC_NODE": 346.4317, "ARG_OF_PERICENTER": 260.8078, "MEAN_ANOMALY": 278.9053, "EPHEMERIS_TYPE": 0, "CLASSIFICATION_TYPE": "U", "NORAD_CAT_ID": 49810, "ELEMENT_SET_NO": 999, "REV_AT_EPOCH": 2520, "BSTAR": 0, "MEAN_MOTION_DOT": -6.3e-07, "MEAN_MOTION_DDOT": 0}, "tle": {"line1": "1 49810U 21116B   25357.12568898 -.00000063  00000+0  00000+0 0  9990", "line2": "2 49810  57.2181 346.4317 0003752 260.8078 278.9053  1.70475912 25203"}}, "geometry": {"type": "Point", "coordinates": [9.888997794330036, 31.726337441526788]}}, {"type": "Feature", "properties": {"norad_id": 52984, "name": "COSMOS 2557 (706K)", "group": "gnss", "lat": -64.0489228617855, "lon": -139.51573724855376, "alt_km": 19102.76855033603, "timestamp": "2025-12-23T11:34:48.410962+00:00", "meta": {"OBJECT_NAME": "COSMOS 2557 (706K)", "OBJECT_ID": "2022-075A", "EPOCH": "2025-12-23T03:16:01.943040", "MEAN_MOTION": 2.13102047, "ECCENTRICITY": 0.0013536, "INCLINATION": 64.4039, "RA_OF_ASC_NODE": 320.6863, "ARG_OF_PERICENTER": 278.4339, "MEAN_ANOMALY": 81.4107, "EPHEMERIS_TYPE": 0, "CLASSIFICATION_TYPE": "U", "NORAD_CAT_ID": 52984, "ELEMENT_SET_NO": 999, "REV_AT_EPOCH": 2696, "BSTAR": 0, "MEAN_MOTION_DOT": -3.9e-07, "MEAN_MOTION_DDOT": 0}, "tle": {"line1": "1 52984U 22075A   25357.13613360 -.00000039  00000+0  00000+0 0  9990", "line2": "2 52984  64.4039 320.6863 0013536 278.4339  81.4107  2.13102047 26962"}}, "geometry": {"type": "Point", "coordinates": [-139.51573724855376, -64.0489228617855]}}]}